{"fetched_at":"2026-03-29T02:12:04Z","count":15717,"tles":[{"name":"STARLINK-34677","line1":"1 65031U 25161S   26087.61424054  .00026199  00000+0  89336-3 0  9997","line2":"2 65031  53.1583 206.5572 0001288  85.9337 274.1811 15.30206946 37126","category":"Starlink"}]}